KUIPER-00125            
1 65954U 25228H   25302.51473981  .00031689  00000+0  94003-3 0  9993
2 65954  51.8784 233.6362 0005692 194.9223 165.1596 15.34528032  3628
KUIPER-00126            
1 65955U 25228J   25302.51783692  .00028846  00000+0  86442-3 0  9996
2 65955  51.8793 233.6595 0006049 208.4620 151.6036 15.34254687  3627
KUIPER-00127            
1 65956U 25228K   25302.44638301  .00041388  00000+0  12106-2 0  9996
2 65956  51.8790 233.9337 0005518 183.7062 176.3884 15.34843220  3618
KUIPER-00128            
1 65957U 25228L   25302.51372102  .00051244  00000+0  15046-2 0  9997
2 65957  51.8789 233.6375 0005723 189.6262 170.4615 15.34625791  3620
KUIPER-00129            
1 65958U 25228M   25302.51332947 -.00108941  00000+0 -32425-2 0  9990
2 65958  51.8789 233.6340 0006773 189.4391 170.6468 15.34508649  3620
KUIPER-00130            
1 65959U 25228N   25302.51576383  .00032852  00000+0  97632-3 0  9992
2 65959  51.8785 233.6433 0005258 201.0439 159.0331 15.34453775  3620
KUIPER-00134            
1 65960U 25228P   25302.51679145  .00034369  00000+0  10245-2 0  9993
2 65960  51.8783 233.6501 0005046 205.7165 154.3570 15.34338564  3629
KUIPER-00135            
1 65961U 25228Q   25302.51639917  .00030823  00000+0  92048-3 0  9990
2 65961  51.8800 233.6546 0005097 192.6514 167.4344 15.34333628  3627
